[{"OBJECT_NAME":"NINGXIA-1 8","OBJECT_ID":"2021-064C","EPOCH":"2026-03-09T22:43:09.880896","MEAN_MOTION":14.08520885,"ECCENTRICITY":0.00068596,"INCLINATION":44.9956,"RA_OF_ASC_NODE":314.4246,"ARG_OF_PERICENTER":130.9681,"MEAN_ANOMALY":229.175,"EPHEMERIS_TYPE":0,"CLASSIFICATION_TYPE":"U","NORAD_CAT_ID":49020,"ELEMENT_SET_NO":999,"REV_AT_EPOCH":24023,"BSTAR":0.0001794062,"MEAN_MOTION_DOT":1.78e-6,"MEAN_MOTION_DDOT":0},{"OBJECT_NAME":"SL-12 DEB","OBJECT_ID":"1992-047T","EPOCH":"2026-03-09T10:45:59.878944","MEAN_MOTION":8.55455658,"ECCENTRICITY":0.32405346,"INCLINATION":64.7613,"RA_OF_ASC_NODE":212.5658,"ARG_OF_PERICENTER":352.2555,"MEAN_ANOMALY":3.7896,"EPHEMERIS_TYPE":0,"CLASSIFICATION_TYPE":"U","NORAD_CAT_ID":28584,"ELEMENT_SET_NO":999,"REV_AT_EPOCH":4663,"BSTAR":0.034604627,"MEAN_MOTION_DOT":0.00076637,"MEAN_MOTION_DDOT":0}]
